     2              NAVIGATION DATA                         RINEX VERSION / TYPE
CCRINEXN V1.6.0 UX  CDDIS               28-NOV-23 17:53     PGM / RUN BY / DATE 
IGS BROADCAST EPHEMERIS FILE                                COMMENT             
    0.2980D-07  0.7451D-08 -0.1192D-06  0.1192D-06          ION ALPHA           
    0.1495D+06 -0.1802D+06  0.0000D+00  0.1311D+06          ION BETA            
    0.279396772385D-08 0.976996261670D-14   405504     2290 DELTA-UTC: A0,A1,T,W
    18                                                      LEAP SECONDS        
                                                            END OF HEADER       
 1 23 11 28  0  0  0.0 0.163379125297D-03 0.227373675443D-12 0.000000000000D+00
    0.560000000000D+02-0.109500000000D+03 0.407481258944D-08-0.924825519358D+00
   -0.561401247978D-05 0.129751419881D-01 0.184960663319D-05 0.515402527428D+04
    0.172800000000D+06 0.596046447754D-07-0.984236122048D+00 0.337138772011D-06
    0.990408237793D+00 0.357125000000D+03 0.100045967728D+01-0.820177020808D-08
   -0.404659712844D-09 0.100000000000D+01 0.229000000000D+04 0.000000000000D+00
    0.200000000000D+01 0.630000000000D+02 0.512227416039D-08 0.560000000000D+02
    0.170331000000D+06 0.400000000000D+01 0.000000000000D+00 0.000000000000D+00
 2 23 11 28  0  0  0.0-0.523164402693D-03 0.511590769747D-11 0.000000000000D+00
    0.820000000000D+02-0.954375000000D+02 0.447697219815D-08 0.169963624033D+01
   -0.543892383575D-05 0.162705814000D-01-0.346451997757D-06 0.515373144722D+04
    0.172800000000D+06 0.270083546638D-06-0.108694132155D+01-0.152736902237D-06
    0.967466531184D+00 0.384937500000D+03-0.130576854017D+01-0.825820113008D-08
   -0.401802450971D-09 0.100000000000D+01 0.229000000000D+04 0.000000000000D+00
    0.200000000000D+01 0.000000000000D+00-0.176951289177D-07 0.820000000000D+02
    0.170316000000D+06 0.400000000000D+01 0.000000000000D+00 0.000000000000D+00
 3 23 11 28  0  0  0.0 0.152965076268D-04 0.263753463514D-10 0.000000000000D+00
    0.600000000000D+02-0.109312500000D+03 0.357193449970D-08-0.206924918591D+01
   -0.556558370590D-05 0.507578032557D-02 0.112708657980D-04 0.515356543922D+04
    0.172800000000D+06 0.782310962677D-07 0.445013316019D-01-0.465661287308D-07
    0.982117996608D+00 0.175312500000D+03 0.111245735143D+01-0.734923469655D-08
    0.194293807403D-09 0.100000000000D+01 0.229000000000D+04 0.000000000000D+00
    0.200000000000D+01 0.000000000000D+00 0.186264514923D-08 0.600000000000D+02
    0.165618000000D+06 0.400000000000D+01 0.000000000000D+00 0.000000000000D+00
 4 23 11 28  0  0  0.0 0.224685762078D-03 0.102318153950D-10 0.000000000000D+00
    0.107000000000D+03 0.109687500000D+02 0.461519224128D-08 0.951239304032D+00
    0.668689608574D-06 0.271239015274D-02 0.672973692417D-05 0.515359612274D+04
    0.172800000000D+06 0.186264514923D-07 0.112411524320D+01 0.800937414169D-07
    0.963409284424D+00 0.250156250000D+03-0.305022348047D+01-0.790104339589D-08
    0.520378818724D-09 0.100000000000D+01 0.229000000000D+04 0.000000000000D+00
    0.200000000000D+01 0.000000000000D+00-0.465661287308D-08 0.363000000000D+03
    0.165618000000D+06 0.400000000000D+01 0.000000000000D+00 0.000000000000D+00
 5 23 11 28  0  0  0.0-0.152025371790D-03-0.147792889038D-11 0.000000000000D+00
    0.830000000000D+02-0.102218750000D+03 0.398802326003D-08 0.154431670788D+01
   -0.545382499695D-05 0.586117513012D-02 0.109169632196D-04 0.515376913643D+04
    0.172800000000D+06-0.372529029846D-07-0.444214489602D-02-0.106170773506D-06
    0.969121062274D+00 0.177968750000D+03 0.123884661971D+01-0.767531970787D-08
    0.112504686272D-09 0.100000000000D+01 0.229000000000D+04 0.000000000000D+00
    0.200000000000D+01 0.000000000000D+00-0.111758708954D-07 0.830000000000D+02
    0.165618000000D+06 0.400000000000D+01 0.000000000000D+00 0.000000000000D+00
 6 23 11 28  0  0  0.0 0.494135078043D-03-0.106865627458D-10 0.000000000000D+00
    0.410000000000D+02-0.102375000000D+03 0.398373736722D-08-0.726235828146D+00
   -0.531598925590D-05 0.304029881954D-02 0.230036675930D-05 0.515378536606D+04
    0.172800000000D+06-0.931322574616D-08-0.992593143980D+00-0.279396772385D-07
    0.989544930335D+00 0.351218750000D+03-0.829887184544D+00-0.806140721854D-08
   -0.286797660560D-09 0.100000000000D+01 0.229000000000D+04 0.000000000000D+00
    0.200000000000D+01 0.000000000000D+00 0.372529029846D-08 0.410000000000D+02
    0.169662000000D+06 0.400000000000D+01 0.000000000000D+00 0.000000000000D+00
 7 23 11 28  0  0  0.0 0.223517417908D-05-0.977706804406D-11 0.000000000000D+00
    0.330000000000D+02-0.154375000000D+02 0.495663503517D-08-0.163411816678D+01
   -0.741332769394D-06 0.176718273433D-01 0.594370067120D-05 0.515368797493D+04
    0.172800000000D+06 0.353902578354D-06 0.213846294162D+01-0.242143869400D-07
    0.950015453100D+00 0.251531250000D+03-0.216499424251D+01-0.793283043423D-08
   -0.323942064916D-09 0.100000000000D+01 0.229000000000D+04 0.000000000000D+00
    0.200000000000D+01 0.000000000000D+00-0.111758708954D-07 0.330000000000D+02
    0.165618000000D+06 0.400000000000D+01 0.000000000000D+00 0.000000000000D+00
 8 23 11 28  0  0  0.0-0.154186040163D-03-0.181898940355D-11 0.000000000000D+00
    0.670000000000D+02 0.136031250000D+03 0.479198531971D-08 0.118128592375D+01
    0.724941492081D-05 0.896535103675D-02 0.248476862907D-05 0.515379262734D+04
    0.172800000000D+06 0.447034835815D-07-0.208259388952D+01 0.763684511185D-07
    0.955882848860D+00 0.325156250000D+03 0.280488866024D+00-0.852285501112D-08
    0.128933942045D-09 0.100000000000D+01 0.229000000000D+04 0.000000000000D+00
    0.200000000000D+01 0.000000000000D+00 0.512227416039D-08 0.670000000000D+02
    0.165618000000D+06 0.400000000000D+01 0.000000000000D+00 0.000000000000D+00
 9 23 11 28  0  0  0.0 0.997679308057D-05 0.114823706099D-10 0.000000000000D+00
    0.710000000000D+02 0.124375000000D+02 0.467376610969D-08 0.170411753437D+01
    0.644475221634D-06 0.296834832989D-02 0.702589750290D-05 0.515376054573D+04
    0.172800000000D+06 0.100582838059D-06 0.106596959798D+01-0.130385160446D-07
    0.956889285297D+00 0.239843750000D+03 0.198666070019D+01-0.792640159501D-08
    0.572523847916D-09 0.100000000000D+01 0.229000000000D+04 0.000000000000D+00
    0.200000000000D+01 0.000000000000D+00 0.139698386192D-08 0.710000000000D+02
    0.165618000000D+06 0.400000000000D+01 0.000000000000D+00 0.000000000000D+00
10 23 11 28  0  0  0.0-0.631050206721D-04-0.159161572810D-11 0.000000000000D+00
    0.480000000000D+02-0.115781250000D+03 0.351836083957D-08-0.303545412726D+01
   -0.598467886448D-05 0.913470122032D-02 0.119097530842D-04 0.515369574165D+04
    0.172800000000D+06-0.223517417908D-07 0.419117925144D-01-0.782310962677D-07
    0.981819710538D+00 0.158968750000D+03-0.242181120245D+01-0.726851704863D-08
    0.274297139863D-09 0.100000000000D+01 0.229000000000D+04 0.000000000000D+00
    0.200000000000D+01 0.000000000000D+00 0.232830643654D-08 0.480000000000D+02
    0.165618000000D+06 0.400000000000D+01 0.000000000000D+00 0.000000000000D+00
11 23 11 28  0  0  0.0-0.478280708194D-03-0.158024704433D-10 0.000000000000D+00
    0.160000000000D+02-0.106187500000D+03 0.450947355196D-08 0.468003415958D+00
   -0.552833080292D-05 0.129079853650D-02 0.227056443691D-05 0.515363255310D+04
    0.172800000000D+06 0.242143869400D-07-0.955456738860D+00-0.149011611938D-07
    0.965950101025D+00 0.338687500000D+03-0.255494431681D+01-0.830320300459D-08
   -0.340728478423D-09 0.100000000000D+01 0.229000000000D+04 0.000000000000D+00
    0.200000000000D+01 0.000000000000D+00-0.838190300000D-08 0.784000000000D+03
    0.165660000000D+06 0.400000000000D+01 0.000000000000D+00 0.000000000000D+00
12 23 11 28  0  0  0.0-0.451620202511D-03-0.409272615798D-11 0.000000000000D+00
    0.450000000000D+02 0.107625000000D+03 0.418803159118D-08-0.230725628459D+01
    0.554695725441D-05 0.875838566571D-02 0.103563070297D-04 0.515375959206D+04
    0.172800000000D+06 0.143423676491D-06-0.302986898984D+01 0.298023223877D-07
    0.964316008364D+00 0.181312500000D+03 0.139714222493D+01-0.755852912879D-08
   -0.885751180806D-10 0.100000000000D+01 0.229000000000D+04 0.000000000000D+00
    0.200000000000D+01 0.000000000000D+00-0.125728547573D-07 0.450000000000D+02
    0.165618000000D+06 0.400000000000D+01 0.000000000000D+00 0.000000000000D+00
13 23 11 28  0  0  0.0 0.599885825068D-03 0.397903932026D-11 0.000000000000D+00
    0.420000000000D+02 0.176250000000D+02 0.458054794106D-08 0.870166976370D+00
    0.875443220139D-06 0.771109736525D-02 0.632181763649D-05 0.515365427589D+04
    0.172800000000D+06-0.912696123123D-07 0.122916693990D+01 0.428408384323D-07
    0.970114288560D+00 0.263281250000D+03 0.953470802697D+00-0.802461997192D-08
    0.374301305437D-09 0.100000000000D+01 0.229000000000D+04 0.000000000000D+00
    0.200000000000D+01 0.000000000000D+00-0.111758708954D-07 0.420000000000D+02
    0.166716000000D+06 0.400000000000D+01 0.000000000000D+00 0.000000000000D+00
14 23 11 28  0  0  0.0 0.255447346717D-03 0.106865627458D-10 0.000000000000D+00
    0.169000000000D+03 0.914375000000D+02 0.449875881993D-08-0.234863400960D+01
    0.471621751785D-05 0.371749198530D-02 0.112690031529D-04 0.515368550301D+04
    0.172800000000D+06-0.298023223877D-07-0.307142032665D+01-0.223517417908D-07
    0.947645420481D+00 0.157656250000D+03-0.295529649790D+01-0.780389649218D-08
   -0.186079179516D-09 0.100000000000D+01 0.229000000000D+04 0.000000000000D+00
    0.200000000000D+01 0.000000000000D+00-0.791624188423D-08 0.937000000000D+03
    0.165618000000D+06 0.400000000000D+01 0.000000000000D+00 0.000000000000D+00
